     2.100          NAVIGATION                              RINEX VERSION / TYPE
fic2rin                                 03/17/2017 00:03:29 PGM / RUN BY / DATE
                                                            END OF HEADER
 5 17  3 16 20  0  0.0 -.554583966732D-04  .193267624127D-11  .000000000000D+00
     .290000000000D+02 -.451875000000D+02  .485805950054D-08  .729681263548D+00
    -.226683914661D-05  .491498166230D-02  .820495188236D-05  .515370403671D+04
     .417600000000D+06 -.316649675369D-07 -.113287700190D+00  .931322574615D-07
     .947105545193D+00  .213718750000D+03  .548288645417D+00 -.825427239501D-08
    -.357872049664D-09  .100000000000D+01  .194000000000D+04  .000000000000D+00
     .240000000000D+01  .000000000000D+00 -.107102096081D-07  .290000000000D+02
     .410406000000D+06  .400000000000D+01
 6 17  3 16 20  0  0.0  .325447414070D-03  .500222085975D-11  .000000000000D+00
     .860000000000D+02  .141562500000D+02  .471198198725D-08 -.197474946758D+01
     .765547156334D-06  .755993765779D-03  .521726906300D-05  .515362912941D+04
     .417600000000D+06  .577419996262D-07 -.114808099100D+01  .260770320892D-07
     .966288914315D+00  .283656250000D+03 -.127636456557D+01 -.825177229087D-08
     .202508435289D-09  .100000000000D+01  .194000000000D+04  .000000000000D+00
     .240000000000D+01  .000000000000D+00  .419095158577D-08  .860000000000D+02
     .410406000000D+06  .400000000000D+01
 7 17  3 16 20  0  0.0  .372520182282D-03 -.397903932026D-11  .000000000000D+00
     .890000000000D+02  .368125000000D+02  .483377277461D-08 -.281523970389D+01
     .183470547199D-05  .102165609132D-01  .370852649212D-05  .515359721375D+04
     .417600000000D+06 -.149011611938D-07  .201802449932D+01 -.163912773132D-06
     .962768963718D+00  .312062500000D+03 -.261393855253D+01 -.823641450830D-08
     .138577200868D-09  .100000000000D+01  .194000000000D+04  .000000000000D+00
     .240000000000D+01  .000000000000D+00 -.111758708954D-07  .890000000000D+02
     .410406000000D+06  .400000000000D+01
 8 17  3 16 20  0  0.0 -.529973767698D-04 -.125055521494D-11  .000000000000D+00
     .370000000000D+02 -.134375000000D+01  .419231748399D-08  .539698813239D+00
    -.240281224251D-06  .257816270459D-02  .101681798697D-04  .515360526848D+04
     .417600000000D+06  .298023223877D-07 -.220259297655D+01 -.353902578354D-07
     .966091173141D+00  .187968750000D+03 -.800393666192D+00 -.791175812791D-08
     .978612191697D-10  .100000000000D+01  .194000000000D+04  .000000000000D+00
     .240000000000D+01  .000000000000D+00  .465661287308D-08  .370000000000D+02
     .410406000000D+06  .400000000000D+01
 9 17  3 16 20  0  0.0  .323452521116D-03  .773070496507D-11  .000000000000D+00
     .142000000000D+03  .604062500000D+02  .457019036677D-08  .558471741675D-01
     .288896262646D-05  .887245987542D-03  .998191535473D-05  .515367554665D+04
     .417600000000D+06  .167638063431D-07  .939033346097D+00  .111758708954D-07
     .953895212787D+00  .181968750000D+03  .180544963897D+01 -.803962059675D-08
     .165721188667D-09  .100000000000D+01  .194000000000D+04  .000000000000D+00
     .240000000000D+01  .000000000000D+00  .139698386192D-08  .142000000000D+03
     .410406000000D+06  .400000000000D+01
10 17  3 16 20  0  0.0 -.930745154619D-04  .579802872380D-11  .000000000000D+00
     .112000000000D+03 -.437812500000D+02  .458911972669D-08  .192146661179D+01
    -.223889946938D-05  .232692505233D-02  .812858343124D-05  .515367548370D+04
     .417600000000D+06 -.353902578354D-07 -.101198142257D+00  .149011611938D-07
     .960314769422D+00  .221218750000D+03 -.283850028128D+01 -.809640867649D-08
    -.305012705003D-09  .100000000000D+01  .194000000000D+04  .000000000000D+00
     .240000000000D+01  .000000000000D+00  .232830643654D-08  .112000000000D+03
     .410406000000D+06  .400000000000D+01
11 17  3 16 20  0  0.0 -.675331335515D-03 -.216004991671D-11  .000000000000D+00
     .450000000000D+02  .443437500000D+02  .585917262949D-08 -.282001549943D+01
     .231526792049D-05  .166238854872D-01  .602938234806D-05  .515370011330D+04
     .417600000000D+06  .152736902237D-06 -.153736263316D+01  .633299350739D-07
     .899689991539D+00  .228562500000D+03  .162660722352D+01 -.847963892528D-08
     .334656796942D-09  .100000000000D+01  .194000000000D+04  .000000000000D+00
     .240000000000D+01  .000000000000D+00 -.121071934700D-07  .450000000000D+02
     .410406000000D+06  .400000000000D+01
12 17  3 16 20  0  0.0  .386933796108D-03 -.568434188608D-12  .000000000000D+00
     .850000000000D+02 -.750312500000D+02  .388766193672D-08  .285428461438D+01
    -.400654971600D-05  .656538584735D-02  .754930078983D-05  .515356986237D+04
     .417600000000D+06 -.409781932831D-07  .310058273398D+01 -.800937414169D-07
     .989819792162D+00  .245343750000D+03  .811224595241D+00 -.775532304033D-08
    -.405016870578D-09  .100000000000D+01  .194000000000D+04  .000000000000D+00
     .240000000000D+01  .000000000000D+00 -.121071934700D-07  .850000000000D+02
     .410406000000D+06  .400000000000D+01
13 17  3 16 20  0  0.0 -.741081312299D-04 -.159161572810D-11  .000000000000D+00
     .610000000000D+02  .732500000000D+02  .421374694805D-08 -.179419479429D+01
     .386498868465D-05  .399742356967D-02  .105071812868D-04  .515369299889D+04
     .417600000000D+06 -.149011611938D-07  .106419037214D+01  .707805156708D-07
     .969917271530D+00  .182218750000D+03  .184068729784D+01 -.787604235449D-08
     .218223375594D-09  .100000000000D+01  .194000000000D+04  .000000000000D+00
     .240000000000D+01  .000000000000D+00 -.111758708954D-07  .610000000000D+02
     .410406000000D+06  .400000000000D+01
14 17  3 16 20  0  0.0 -.630295835435D-04 -.159161572810D-11  .000000000000D+00
     .970000000000D+02  .556250000000D+02  .450340187048D-08 -.439607187107D+00
     .297091901302D-05  .878326699603D-02  .998936593533D-05  .515363634109D+04
     .417600000000D+06 -.782310962677D-07  .102521086579D+01  .102445483208D-06
     .962462932959D+00  .191812500000D+03 -.195863297016D+01 -.813319592311D-08
     .210008747707D-09  .100000000000D+01  .194000000000D+04  .000000000000D+00
     .240000000000D+01  .000000000000D+00 -.931322574615D-08  .970000000000D+02
     .410406000000D+06  .400000000000D+01
15 17  3 16 20  0  0.0 -.345716252923D-03 -.909494701773D-12  .000000000000D+00
     .620000000000D+02  .534062500000D+02  .509021202776D-08 -.933942048858D+00
     .287964940071D-05  .909400882665D-02  .106729567051D-04  .515376661491D+04
     .417600000000D+06  .189989805222D-06  .879202641610D+00  .279396772385D-07
     .929582921637D+00  .152656250000D+03  .576304780356D+00 -.833034699239D-08
     .119290683221D-09  .100000000000D+01  .194000000000D+04  .000000000000D+00
     .240000000000D+01  .000000000000D+00 -.107102096081D-07  .620000000000D+02
     .410406000000D+06  .400000000000D+01
16 17  3 16 20  0  0.0  .290474854410D-04  .909494701773D-12  .000000000000D+00
     .560000000000D+02 -.617500000000D+02  .394766443607D-08  .878824295885D+00
    -.292249023914D-05  .929341965821D-02  .740773975849D-05  .515366473389D+04
     .417600000000D+06 -.186264514923D-08  .311941415281D+01  .912696123123D-07
     .990307864058D+00  .250218750000D+03  .413752965672D+00 -.791032949697D-08
    -.443232748137D-09  .100000000000D+01  .194000000000D+04  .000000000000D+00
     .240000000000D+01  .000000000000D+00 -.107102096081D-07  .560000000000D+02
     .410406000000D+06  .400000000000D+01
17 17  3 16 20  0  0.0 -.187681056559D-03  .136424205266D-11  .000000000000D+00
     .440000000000D+02  .878125000000D+01  .399945230753D-08 -.137761715471D+00
     .484287738800D-06  .116624520160D-01  .108536332846D-04  .515359976768D+04
     .417600000000D+06 -.130385160446D-06 -.214601098741D+01  .173225998878D-06
     .979261240904D+00  .183656250000D+03 -.185514289902D+01 -.795497421375D-08
     .222152110670D-09  .100000000000D+01  .194000000000D+04  .000000000000D+00
     .240000000000D+01  .000000000000D+00 -.107102096081D-07  .440000000000D+02
     .410406000000D+06  .400000000000D+01
18 17  3 16 20  0  0.0  .604994595051D-03  .227373675443D-11  .000000000000D+00
     .109000000000D+03 -.524687500000D+02  .543951229181D-08  .138699678125D+01
    -.286661088467D-05  .177837462397D-01  .785104930401D-05  .515374853516D+04
     .417600000000D+06 -.327825546265D-06 -.140711457174D+00 -.296160578728D-06
     .925850021370D+00  .212656250000D+03 -.182359487461D+01 -.868929051526D-08
    -.298583865788D-09  .100000000000D+01  .194000000000D+04  .000000000000D+00
     .240000000000D+01  .000000000000D+00 -.111758708954D-07  .109000000000D+03
     .410406000000D+06  .400000000000D+01
19 17  3 16 20  0  0.0 -.510252080858D-03  .113686837722D-11  .000000000000D+00
     .790000000000D+02  .106875000000D+02  .395873632583D-08  .301214033914D+01
     .448897480965D-06  .101802924182D-01  .106580555439D-04  .515366105652D+04
     .417600000000D+06  .279396772385D-07 -.209799517799D+01 -.121071934700D-06
     .976457652032D+00  .178906250000D+03  .929441226318D+00 -.762246036321D-08
     .229295265354D-09  .100000000000D+01  .194000000000D+04  .000000000000D+00
     .240000000000D+01  .000000000000D+00 -.153668224812D-07  .790000000000D+02
     .410406000000D+06  .400000000000D+01
20 17  3 16 20  0  0.0  .464332289994D-03  .159161572810D-11  .000000000000D+00
     .550000000000D+02 -.464062500000D+02  .533593654889D-08 -.988051712297D+00
    -.225007534027D-05  .448986620177D-02  .768713653088D-05  .515364377022D+04
     .417600000000D+06 -.279396772385D-07 -.192126320181D+00  .689178705215D-07
     .927165401235D+00  .214656250000D+03  .156760577561D+01 -.854071289783D-08
    -.240724312848D-09  .100000000000D+01  .194000000000D+04  .000000000000D+00
     .240000000000D+01  .000000000000D+00 -.838190317154D-08  .550000000000D+02
     .410406000000D+06  .400000000000D+01
